COSMOS 2433 (720)       
1 32275U 07052A   24024.21784139 -.00000088  00000+0  00000+0 0  9995
2 32275  65.9845 345.2137 0004584 273.3593  86.5769  2.13104046126412
COSMOS 2432 (719)       
1 32276U 07052B   24024.51204876 -.00000087  00000+0  00000+0 0  9993
2 32276  65.9990 345.3152 0012114 321.5351 210.7567  2.13103333126446
COSMOS 2434 (721)       
1 32393U 07065A   24022.61925128  .00000103  00000+0  00000+0 0  9994
2 32393  64.3263 221.5432 0005118  74.7148  30.5214  2.13103119125094
COSMOS 2436 (723)       
1 32395U 07065C   24024.63374091  .00000080  00000+0  00000+0 0  9991
2 32395  64.3352 221.5377 0017271   9.4648 336.5623  2.13102829125085
COSMOS 2456 (730)       
1 36111U 09070A   24024.27552682 -.00000025  00000+0  00000+0 0  9993
2 36111  64.5476 100.9314 0004223 295.8386 157.0436  2.13098966109781
COSMOS 2457 (733)       
1 36112U 09070B   24024.56963389 -.00000022  00000+0  00000+0 0  9993
2 36112  64.5320 100.7833 0004743 177.6064 272.8116  2.13101167109791
COSMOS 2460 (732)       
1 36402U 10007C   24023.28919189 -.00000089  00000+0  00000+0 0  9997
2 36402  65.8442 343.9360 0002624 310.7843 227.4235  2.13106233108065
COSMOS 2476 (744)       
1 37867U 11064A   24024.35539230 -.00000024  00000+0  00000+0 0  9990
2 37867  64.8247 102.5097 0023801 236.4074 188.3040  2.13101658 95126
COSMOS 2477 (745)       
1 37868U 11064B   24024.03603403 -.00000028  00000+0  00000+0 0  9994
2 37868  64.8316 102.5915 0020981 237.1995 120.3082  2.13101441 95109
COSMOS 2475 (743)       
1 37869U 11064C   24024.15530036 -.00000026  00000+0  00000+0 0  9997
2 37869  64.8389 102.6010 0025625 252.3635 155.2427  2.13101632 95121
COSMOS 2485 (747)       
1 39155U 13019A   24024.21297088 -.00000026  00000+0  00000+0 0  9993
2 39155  64.9836 103.0683 0024125 232.5810 127.2453  2.13101687 83630
COSMOS 2492 (754)       
1 39620U 14012A   24024.16836071 -.00000089  00000+0  00000+0 0  9998
2 39620  65.7266 343.5048 0015126 319.0859  40.7893  2.13103161 76597
COSMOS 2500 (755)       
1 40001U 14032A   24024.34973653 -.00000088  00000+0  00000+0 0  9992
2 40001  65.6643 343.3151 0006331 226.0380 133.8990  2.13106074 74818
COSMOS 2501 (702K)      
1 40315U 14075A   24023.19366092  .00000095  00000+0  00000+0 0  9999
2 40315  63.6289 220.7537 0018038 203.3663 156.5983  2.13101350 71188
COSMOS 2514 (751)       
1 41330U 16008A   24024.11383849 -.00000089  00000+0  00000+0 0  9991
2 41330  65.4603 342.8690 0010351 225.5249 134.3799  2.13102650 61977
COSMOS 2522 (752)       
1 42939U 17055A   24023.95505989  .00000087  00000+0  00000+0 0  9999
2 42939  64.0895 221.7345 0005230 230.2114 129.7885  2.13101971 49321
COSMOS 2527 (756)       
1 43508U 18053A   24023.91383475 -.00000029  00000+0  00000+0 0  9998
2 43508  65.1442 103.2003 0009362 231.8269 128.1330  2.13102393 43621
COSMOS 2529 (757)       
1 43687U 18086A   24024.01312212  .00000087  00000+0  00000+0 0  9998
2 43687  64.3050 222.2062 0006598 265.5753  94.3961  2.13102069 40634
COSMOS 2534 (758)       
1 44299U 19030A   24024.54457968  .00000081  00000+0  00000+0 0  9998
2 44299  64.3781 222.1278 0009311 292.8982 248.9899  2.13102092 36285
COSMOS 2544 (759)       
1 44850U 19088A   24024.32698029 -.00000024  00000+0  00000+0 0  9993
2 44850  65.1307 103.0264 0014162 254.7959 105.0944  2.13102149 32074
COSMOS 2545 (760)       
1 45358U 20018A   24024.05456321 -.00000090  00000+0  00000+0 0  9992
2 45358  64.8009 343.0004 0010622 258.3150 101.5554  2.13102595 30016
COSMOS 2547 (705K)      
1 46805U 20075A   24022.83516502  .00000101  00000+0  00000+0 0  9997
2 46805  64.6060 221.7838 0005304 234.9722 125.0283  2.13102955 25230
COSMOS 2557 (706K)      
1 52984U 22075A   24022.99861096 -.00000090  00000+0  00000+0 0  9990
2 52984  64.7225 345.1815 0013786 284.0919  75.7446  2.13101848 12049
COSMOS 2559 (707K)      
1 54031U 22130A   24024.34884267 -.00000090  00000+0  00000+0 0  9993
2 54031  64.6935 345.2571 0006785 239.2786 120.6440  2.13101179 10045
COSMOS 2564 (761)       
1 54377U 22161A   24024.54114245  .00000082  00000+0  00000+0 0  9994
2 54377  64.7470 221.8050 0007212 205.9956 154.0122  2.13102182  8993
COSMOS 2569 (703K)      
1 57517U 23114A   24022.68251606 -.00000042  00000+0  00000+0 0  9995
2 57517  64.8547 102.2842 0011191 291.4535  68.4663  2.13104317  3583
